GLOBALSTAR M094         
1 39074U 13005C   25091.60573690 -.00000116  00000+0 -69134-4 0  9991
2 39074  51.9964  55.2808 0000703  84.8148 275.2799 12.62269364562702
GLOBALSTAR M078         
1 39076U 13005E   25091.51290706 -.00000141  00000+0 -20890-3 0  9990
2 39076  51.9871 188.6330 0000953  44.3094 315.7849 12.62259247560231
GLOBALSTAR M095         
1 39077U 13005F   25091.53962209 -.00000070  00000+0  18788-3 0  9990
2 39077  51.9792 185.7882 0000901  82.5161 277.5807 12.62268365560090
GLOBALSTAR M087         
1 52888U 22064A   25091.57027249 -.00000077  00000+0  14859-3 0  9992
2 52888  51.9811 327.1003 0000876  78.8956 281.2009 12.62270159135363
